ORBCOMM-X               
1 21576U 91050C   25084.62704280  .00001205  00000+0  37133-3 0  9991
2 21576  98.3509 152.9039 0004834  84.2161 275.9581 14.43163571770069
ORBCOMM FM01            
1 23545U 95017A   25084.52461806  .00015800  00000+0  16977-2 0  9997
2 23545  69.9630 282.5681 0001058 162.9083 197.2106 14.88622033600053
ORBCOMM FM02            
1 23546U 95017B   25084.03765515  .00021911  00000+0  23196-2 0  9999
2 23546  69.9657 303.3929 0002056 123.4338 236.7013 14.89125756599621
ORBCOMM FM08            
1 25112U 97084A   25084.90872559  .00005283  00000+0  15263-2 0  9999
2 25112  45.0137  47.5357 0005279 203.8055 156.2553 14.45408950429327
ORBCOMM FM10            
1 25113U 97084B   25084.94679687  .00005019  00000+0  14586-2 0  9995
2 25113  45.0148  49.5896 0002780 165.2114 194.8819 14.45197579604477
ORBCOMM FM11            
1 25114U 97084C   25084.93706028  .00004702  00000+0  13761-2 0  9997
2 25114  45.0133  50.1193 0003590 164.5389 195.5572 14.44950269429433
ORBCOMM FM12            
1 25115U 97084D   25084.96995247  .00004670  00000+0  13664-2 0  9990
2 25115  45.0141  49.7210 0002585 164.8346 195.2583 14.44977242429233
ORBCOMM FM09            
1 25116U 97084E   25084.92621537  .00004413  00000+0  12966-2 0  9994
2 25116  45.0146  50.7833 0003773 142.0315 218.0803 14.44864660429436
